[{"OBJECT_NAME":"FLOCK 4H-31","OBJECT_ID":"2025-276BW","EPOCH":"2026-03-09T04:12:33.777216","MEAN_MOTION":15.18403847,"ECCENTRICITY":0.00040262,"INCLINATION":97.4236,"RA_OF_ASC_NODE":143.3458,"ARG_OF_PERICENTER":29.5854,"MEAN_ANOMALY":330.5607,"EPHEMERIS_TYPE":0,"CLASSIFICATION_TYPE":"U","NORAD_CAT_ID":66734,"ELEMENT_SET_NO":999,"REV_AT_EPOCH":1523,"BSTAR":0.00041894151,"MEAN_MOTION_DOT":8.555e-5,"MEAN_MOTION_DDOT":0},{"OBJECT_NAME":"LILIUM-3","OBJECT_ID":"2025-276DJ","EPOCH":"2026-03-09T16:54:54.141120","MEAN_MOTION":15.18939749,"ECCENTRICITY":0.00011225,"INCLINATION":97.4313,"RA_OF_ASC_NODE":144.1145,"ARG_OF_PERICENTER":186.7966,"MEAN_ANOMALY":173.3253,"EPHEMERIS_TYPE":0,"CLASSIFICATION_TYPE":"U","NORAD_CAT_ID":66770,"ELEMENT_SET_NO":999,"REV_AT_EPOCH":1532,"BSTAR":0.00016352677,"MEAN_MOTION_DOT":3.348e-5,"MEAN_MOTION_DDOT":0}]
